NORAD_CAT_ID,OBJECT_NAME,OBJECT_TYPE,EPOCH,MEAN_MOTION,ECCENTRICITY,INCLINATION,RA_OF_ASC_NODE,ARG_OF_PERICENTER,MEAN_ANOMALY,BSTAR,MEAN_MOTION_DOT,MEAN_MOTION_DDOT,TLE_LINE0,TLE_LINE1,TLE_LINE2,SEMIMAJOR_AXIS,PERIOD,APOGEE,PERIGEE,DECAYED
55653.0,STARLINK-5067,PAYLOAD,2024-02-29 21:52:23,14.98333177,0.000306,69.9989,247.0114,268.518,91.5629,3.2703e-05,2.97e-06,0.0,0 STARLINK-5067,1 55653U 23021AB  24060.91137781  .00000297  00000-0  32703-4 0  9998,2 55653  69.9989 247.0114 0003060 268.5180  91.5629 14.98333177 58139,6950.183,96.107,574.175,569.921,0.0
55653.0,STARLINK-5067,PAYLOAD,2024-03-01 13:53:43,14.98331494,0.0003091,69.9989,245.3278,268.697,91.3835,6.1772e-05,6.44e-06,0.0,0 STARLINK-5067,1 55653U 23021AB  24061.57897718  .00000644  00000-0  61772-4 0  9998,2 55653  69.9989 245.3278 0003091 268.6970  91.3835 14.98331494 58231,6950.188,96.107,574.202,569.905,0.0
55653.0,STARLINK-5067,PAYLOAD,2024-03-01 21:54:23,14.98333369,0.0003099,69.999,244.4862,268.858,91.2224,6.2473e-05,6.53e-06,0.0,0 STARLINK-5067,1 55653U 23021AB  24061.91277557  .00000653  00000-0  62473-4 0  9998,2 55653  69.9990 244.4862 0003099 268.8580  91.2224 14.98333369 58288,6950.182,96.107,574.201,569.894,0.0
55653.0,STARLINK-5067,PAYLOAD,2024-03-02 13:55:44,14.9832878,0.0003063,69.9991,242.8029,268.7575,91.3233,-2.2486e-05,-3.61e-06,0.0,0 STARLINK-5067,1 55653U 23021AB  24062.58038045 -.00000361  00000-0 -22486-4 0  9997,2 55653  69.9991 242.8029 0003063 268.7575  91.3233 14.98328780 58383,6950.197,96.107,574.191,569.933,0.0
55653.0,STARLINK-5067,PAYLOAD,2024-03-02 20:20:17,14.98330041,0.000307,69.999,242.1299,269.5792,90.5016,-2.1654e-05,-3.51e-06,0.0,0 STARLINK-5067,1 55653U 23021AB  24062.84741974 -.00000351  00000-0 -21654-4 0  9993,2 55653  69.9990 242.1299 0003070 269.5792  90.5016 14.98330041 58127,6950.193,96.107,574.191,569.924,0.0
55653.0,STARLINK-5067,PAYLOAD,2024-03-02 21:56:25,14.98329596,0.0003072,69.999,241.9616,269.6333,90.4474,-2.6213e-05,-4.06e-06,0.0,0 STARLINK-5067,1 55653U 23021AB  24062.91418011 -.00000406  00000-0 -26213-4 0  9991,2 55653  69.9990 241.9616 0003072 269.6333  90.4474 14.98329596 58435,6950.194,96.107,574.194,569.924,0.0
55653.0,STARLINK-5067,PAYLOAD,2024-03-03 13:57:45,14.98332289,0.0003049,69.999,240.2783,269.9886,90.0923,1.5926e-05,9.7e-07,0.0,0 STARLINK-5067,1 55653U 23021AB  24063.58177715  .00000097  00000-0  15926-4 0  9991,2 55653  69.9990 240.2783 0003049 269.9886  90.0923 14.98332289 58531,6950.186,96.107,574.17,569.932,0.0
55653.0,STARLINK-5067,PAYLOAD,2024-03-03 20:22:17,14.98334369,0.0002995,69.9991,239.6055,268.4846,91.597,4.0377e-05,3.89e-06,0.0,0 STARLINK-5067,1 55653U 23021AB  24063.84881470  .00000389  00000-0  40377-4 0  9992,2 55653  69.9991 239.6055 0002995 268.4846  91.5970 14.98334369 58578,6950.179,96.107,574.126,569.963,0.0
55653.0,STARLINK-5067,PAYLOAD,2024-03-04 04:22:57,14.98334549,0.0003008,69.9991,238.7634,270.0583,90.0231,5.6423e-05,5.8e-06,0.0,0 STARLINK-5067,1 55653U 23021AB  24064.18261354  .00000580  00000-0  56423-4 0  9995,2 55653  69.9991 238.7634 0003008 270.0583  90.0231 14.98334549 58321,6950.179,96.107,574.134,569.953,0.0
55653.0,STARLINK-5067,PAYLOAD,2024-03-04 13:59:46,14.98333814,0.0003059,69.9988,237.7529,271.2207,88.8601,0.00010219,1.127e-05,0.0,0 STARLINK-5067,1 55653U 23021AB  24064.58317155  .00001127  00000-0  10219-3 0  9990,2 55653  69.9988 237.7529 0003059 271.2207  88.8601 14.98333814 58680,6950.181,96.107,574.172,569.92,0.0
55653.0,STARLINK-5067,PAYLOAD,2024-03-04 22:00:26,14.98336238,0.000304,69.9991,236.9115,270.9895,89.0916,0.00012145,1.357e-05,0.0,0 STARLINK-5067,1 55653U 23021AB  24064.91696866  .00001357  00000-0  12145-3 0  9991,2 55653  69.9991 236.9115 0003040 270.9895  89.0916 14.98336238 58736,6950.174,96.107,574.151,569.926,0.0
55653.0,STARLINK-5067,PAYLOAD,2024-03-05 14:01:47,14.98328197,0.0002883,69.9997,235.2285,268.9889,91.094,-3.9766e-05,-5.67e-06,0.0,0 STARLINK-5067,1 55653U 23021AB  24065.58457775 -.00000567  00000-0 -39766-4 0  9992,2 55653  69.9997 235.2285 0002883 268.9889  91.0940 14.98328197 58832,6950.198,96.107,574.067,570.06,0.0
55653.0,STARLINK-5067,PAYLOAD,2024-03-05 20:26:19,14.98327574,0.0002896,69.9998,234.555,271.0981,88.9846,-4.3801e-05,-6.16e-06,0.0,0 STARLINK-5067,1 55653U 23021AB  24065.85161852 -.00000616  00000-0 -43801-4 0  9990,2 55653  69.9998 234.5550 0002896 271.0981  88.9846 14.98327574 58571,6950.2,96.107,574.078,570.053,0.0
55653.0,STARLINK-5067,PAYLOAD,2024-03-06 10:51:37,14.98266595,0.0002765,70.0004,233.0408,265.8018,94.2825,-0.00076973,-9.25e-05,0.0,0 STARLINK-5067,1 55653U 23021AB  24066.45252038 -.00009250  00000-0 -76973-3 0  9992,2 55653  70.0004 233.0408 0002765 265.8018  94.2825 14.98266595 58667,6950.389,96.111,574.176,570.332,0.0
55653.0,STARLINK-5067,PAYLOAD,2024-03-06 14:03:54,14.98265843,0.0002723,70.0003,232.7042,265.8302,94.2546,-0.00075322,-9.054e-05,0.0,0 STARLINK-5067,1 55653U 23021AB  24066.58604519 -.00009054  00000-0 -75322-3 0  9990,2 55653  70.0003 232.7042 0002723 265.8302  94.2546 14.98265843 58986,6950.391,96.111,574.149,570.364,0.0
55653.0,STARLINK-5067,PAYLOAD,2024-03-06 18:52:15,14.98297635,0.0002807,70.0012,232.1969,247.094,112.9923,-2.999e-05,-4.5e-06,0.0,0 STARLINK-5067,1 55653U 23021AB  24066.78629124 -.00000450  00000-0 -29990-4 0  9993,2 55653  70.0012 232.1969 0002807 247.0940 112.9923 14.98297635 58713,6950.293,96.109,574.109,570.207,0.0
55653.0,STARLINK-5067,PAYLOAD,2024-03-06 20:28:22,14.98324153,0.0002852,70.0008,232.0314,262.5382,97.5453,-1.6868e-05,-2.94e-06,0.0,0 STARLINK-5067,1 55653U 23021AB  24066.85303608 -.00000294  00000-0 -16868-4 0  9993,2 55653  70.0008 232.0314 0002852 262.5382  97.5453 14.98324153 58726,6950.211,96.107,574.058,570.094,0.0
55653.0,STARLINK-5067,PAYLOAD,2024-03-07 12:29:42,14.98330318,0.0003167,69.9997,230.3469,271.0482,89.0314,0.00020049,2.3e-05,0.0,0 STARLINK-5067,1 55653U 23021AB  24067.52062873  .00002300  00000-0  20049-3 0  9997,2 55653  69.9997 230.3469 0003167 271.0482  89.0314 14.98330318 59125,6950.192,96.107,574.258,569.856,0.0
55653.0,STARLINK-5067,PAYLOAD,2024-03-08 12:31:42,14.98316034,0.0002994,69.9995,227.8217,268.3591,91.7225,0.00086242,0.00010209,0.0,0 STARLINK-5067,1 55653U 23021AB  24068.52201964  .00010209  00000-0  86242-3 0  9998,2 55653  69.9995 227.8217 0002994 268.3591  91.7225 14.98316034 58974,6950.236,96.108,574.182,570.02,0.0
55653.0,STARLINK-5067,PAYLOAD,2024-03-08 20:32:21,14.9833431,0.0002631,69.9982,226.9786,266.3657,93.7201,0.00091969,0.00010899,0.0,0 STARLINK-5067,1 55653U 23021AB  24068.85580612  .00010899  00000-0  91969-3 0  9991,2 55653  69.9982 226.9786 0002631 266.3657  93.7201 14.98334310 59323,6950.18,96.107,573.873,570.216,0.0
55653.0,STARLINK-5067,PAYLOAD,2024-03-09 10:57:34,14.98349643,0.0002828,69.9996,225.4652,268.5254,91.5581,-9.0294e-06,-2.01e-06,0.0,0 STARLINK-5067,1 55653U 23021AB  24069.45665105 -.00000201  00000-0 -90294-5 0  9999,2 55653  69.9996 225.4652 0002828 268.5254  91.5581 14.98349643 59118,6950.132,96.106,573.963,570.032,0.0
55653.0,STARLINK-5067,PAYLOAD,2024-03-09 12:33:43,14.98332136,0.0003193,69.9996,225.2969,277.5679,82.5117,-0.00019981,-2.476e-05,0.0,0 STARLINK-5067,1 55653U 23021AB  24069.52342582 -.00002476  00000-0 -19981-3 0  9996,2 55653  69.9996 225.2969 0003193 277.5679  82.5117 14.98332136 59422,6950.186,96.107,574.27,569.832,0.0
55653.0,STARLINK-5067,PAYLOAD,2024-03-09 17:22:07,14.98335411,0.0003015,69.9994,224.7922,272.2225,87.8589,-0.0001942,-2.41e-05,0.0,0 STARLINK-5067,1 55653U 23021AB  24069.72370222 -.00002410  00000-0 -19420-3 0  9996,2 55653  69.9994 224.7922 0003015 272.2225  87.8589 14.98335411 59155,6950.176,96.107,574.137,569.946,0.0
55653.0,STARLINK-5067,PAYLOAD,2024-03-10 12:35:44,14.98342904,0.0002622,69.9983,222.7703,276.6218,83.4642,-0.00034368,-4.193e-05,0.0,0 STARLINK-5067,1 55653U 23021AB  24070.52481699 -.00004193  00000-0 -34368-3 0  9995,2 55653  69.9983 222.7703 0002622 276.6218  83.4642 14.98342904 59574,6950.153,96.106,573.84,570.196,0.0
55653.0,STARLINK-5067,PAYLOAD,2024-03-10 20:36:24,14.98344364,0.0002579,69.9985,221.9289,276.2345,83.852,-0.00028033,-3.437e-05,0.0,0 STARLINK-5067,1 55653U 23021AB  24070.85861173 -.00003437  00000-0 -28033-3 0  9992,2 55653  69.9985 221.9289 0002579 276.2345  83.8520 14.98344364 59328,6950.148,96.106,573.806,570.221,0.0
55653.0,STARLINK-5067,PAYLOAD,2024-03-11 03:00:57,14.98253708,0.000292,69.9987,221.256,257.7067,102.3765,0.0013533,0.00016059,0.0,0 STARLINK-5067,1 55653U 23021AB  24071.12566329  .00016059  00000-0  13533-2 0  9998,2 55653  69.9987 221.2560 0002920 257.7067 102.3765 14.98253708 59363,6950.429,96.112,574.323,570.264,0.0
55653.0,STARLINK-5067,PAYLOAD,2024-03-11 12:37:44,14.98326592,0.0002816,69.999,220.2469,274.666,85.4177,0.00012445,1.392e-05,0.0,0 STARLINK-5067,1 55653U 23021AB  24071.52620872  .00001392  00000-0  12445-3 0  9992,2 55653  69.9990 220.2469 0002816 274.6660  85.4177 14.98326592 59422,6950.203,96.107,574.026,570.111,0.0
55653.0,STARLINK-5067,PAYLOAD,2024-03-12 12:39:45,14.98325764,0.0002676,69.9996,217.7224,266.9227,93.1626,5.5211e-05,5.66e-06,0.0,0 STARLINK-5067,1 55653U 23021AB  24072.52761288  .00000566  00000-0  55211-4 0  9991,2 55653  69.9996 217.7224 0002676 266.9227  93.1626 14.98325764 59576,6950.206,96.107,573.931,570.211,0.0
55653.0,STARLINK-5067,PAYLOAD,2024-03-13 11:05:38,14.98312665,0.0002928,69.9986,215.3642,267.7801,92.3023,0.00040868,4.784e-05,0.0,0 STARLINK-5067,1 55653U 23021AB  24073.46225287  .00004784  00000-0  40868-3 0  9996,2 55653  69.9986 215.3642 0002928 267.7801  92.3023 14.98312665 60019,6950.246,96.108,574.147,570.076,0.0
55653.0,STARLINK-5067,PAYLOAD,2024-03-13 15:54:02,14.98335313,0.0002803,69.9991,214.8603,269.7227,90.3611,3.0003e-05,2.65e-06,0.0,0 STARLINK-5067,1 55653U 23021AB  24073.66252770  .00000265  00000-0  30003-4 0  9996,2 55653  69.9991 214.8603 0002803 269.7227  90.3611 14.98335313 59746,6950.176,96.107,573.99,570.093,0.0
